[{"OBJECT_NAME":"STARLINK-4300","OBJECT_ID":"2022-083AT","EPOCH":"2026-03-09T11:11:27.442176","MEAN_MOTION":15.08844016,"ECCENTRICITY":0.00012528,"INCLINATION":53.2153,"RA_OF_ASC_NODE":140.1125,"ARG_OF_PERICENTER":83.9868,"MEAN_ANOMALY":276.1267,"EPHEMERIS_TYPE":0,"CLASSIFICATION_TYPE":"U","NORAD_CAT_ID":53173,"ELEMENT_SET_NO":999,"REV_AT_EPOCH":20166,"BSTAR":7.551612e-6,"MEAN_MOTION_DOT":-1.68e-6,"MEAN_MOTION_DDOT":0},{"OBJECT_NAME":"DELTA 1 DEB","OBJECT_ID":"1977-065GP","EPOCH":"2026-03-02T03:31:01.237440","MEAN_MOTION":13.03355834,"ECCENTRICITY":0.09264479,"INCLINATION":28.9861,"RA_OF_ASC_NODE":227.6335,"ARG_OF_PERICENTER":184.391,"MEAN_ANOMALY":174.8,"EPHEMERIS_TYPE":0,"CLASSIFICATION_TYPE":"U","NORAD_CAT_ID":39102,"ELEMENT_SET_NO":999,"REV_AT_EPOCH":54183,"BSTAR":0.00017441468,"MEAN_MOTION_DOT":5.88e-6,"MEAN_MOTION_DDOT":0}]
